{
  "type": "FeatureCollection",
  "features": [
    {
      "type": "Feature",
      "properties": {
        "OBJECT_NAME": "INTELSAT 11 (IS-11)",
        "OBJECT_ID": "2007-044B",
        "EPOCH": "2025-11-29T18:38:27.093408",
        "MEAN_MOTION": 0.99048403,
        "ECCENTRICITY": 0.0009136,
        "INCLINATION": 3.0433,
        "RA_OF_ASC_NODE": 81.1254,
        "ARG_OF_PERICENTER": 158.712,
        "MEAN_ANOMALY": 31.4845,
        "EPHEMERIS_TYPE": 0,
        "CLASSIFICATION_TYPE": "U",
        "NORAD_CAT_ID": 32253,
        "ELEMENT_SET_NO": 999,
        "REV_AT_EPOCH": 6647,
        "BSTAR": 0,
        "MEAN_MOTION_DOT": -6.6e-07,
        "MEAN_MOTION_DDOT": 0,
        "norad_id": 32253,
        "name": "INTELSAT 11 (IS-11)",
        "group": "intelsat",
        "longitude_deg": NaN,
        "latitude_deg": NaN,
        "alt_km": NaN,
        "orbit_class": "HEO",
        "timestamp": "2025-11-30T04:58:49.599831+00:00"
      },
      "geometry": {
        "type": "Point",
        "coordinates": [
          NaN,
          NaN
        ]
      }
    },
    {
      "type": "Feature",
      "properties": {
        "OBJECT_NAME": "HORIZONS-2",
        "OBJECT_ID": "2007-063B",
        "EPOCH": "2025-11-29T18:39:26.997120",
        "MEAN_MOTION": 1.00273791,
        "ECCENTRICITY": 0.0004722,
        "INCLINATION": 2.0848,
        "RA_OF_ASC_NODE": 83.1093,
        "ARG_OF_PERICENTER": 177.9457,
        "MEAN_ANOMALY": 13.927,
        "EPHEMERIS_TYPE": 0,
        "CLASSIFICATION_TYPE": "U",
        "NORAD_CAT_ID": 32388,
        "ELEMENT_SET_NO": 999,
        "REV_AT_EPOCH": 6581,
        "BSTAR": 0,
        "MEAN_MOTION_DOT": -2.32e-06,
        "MEAN_MOTION_DDOT": 0,
        "norad_id": 32388,
        "name": "HORIZONS-2",
        "group": "intelsat",
        "longitude_deg": NaN,
        "latitude_deg": NaN,
        "alt_km": NaN,
        "orbit_class": "HEO",
        "timestamp": "2025-11-30T04:58:49.599914+00:00"
      },
      "geometry": {
        "type": "Point",
        "coordinates": [
          NaN,
          NaN
        ]
      }
    },
    {
      "type": "Feature",
      "properties": {
        "OBJECT_NAME": "DIRECTV 11",
        "OBJECT_ID": "2008-013A",
        "EPOCH": "2025-11-29T15:06:51.932736",
        "MEAN_MOTION": 1.00266519,
        "ECCENTRICITY": 7.35e-05,
        "INCLINATION": 0.0359,
        "RA_OF_ASC_NODE": 154.5834,
        "ARG_OF_PERICENTER": 13.2744,
        "MEAN_ANOMALY": 28.456,
        "EPHEMERIS_TYPE": 0,
        "CLASSIFICATION_TYPE": "U",
        "NORAD_CAT_ID": 32729,
        "ELEMENT_SET_NO": 999,
        "REV_AT_EPOCH": 4359,
        "BSTAR": 0,
        "MEAN_MOTION_DOT": -1.04e-06,
        "MEAN_MOTION_DDOT": 0,
        "norad_id": 32729,
        "name": "DIRECTV 11",
        "group": "intelsat",
        "longitude_deg": NaN,
        "latitude_deg": NaN,
        "alt_km": NaN,
        "orbit_class": "HEO",
        "timestamp": "2025-11-30T04:58:49.599962+00:00"
      },
      "geometry": {
        "type": "Point",
        "coordinates": [
          NaN,
          NaN
        ]
      }
    },
    {
      "type": "Feature",
      "properties": {
        "OBJECT_NAME": "GALAXY 18 (G-18)",
        "OBJECT_ID": "2008-024A",
        "EPOCH": "2025-11-29T16:42:42.753888",
        "MEAN_MOTION": 1.00272426,
        "ECCENTRICITY": 0.0003082,
        "INCLINATION": 0.0203,
        "RA_OF_ASC_NODE": 306.1181,
        "ARG_OF_PERICENTER": 301.4948,
        "MEAN_ANOMALY": 308.8982,
        "EPHEMERIS_TYPE": 0,
        "CLASSIFICATION_TYPE": "U",
        "NORAD_CAT_ID": 32951,
        "ELEMENT_SET_NO": 999,
        "REV_AT_EPOCH": 4385,
        "BSTAR": 0,
        "MEAN_MOTION_DOT": 4.6e-07,
        "MEAN_MOTION_DDOT": 0,
        "norad_id": 32951,
        "name": "GALAXY 18 (G-18)",
        "group": "intelsat",
        "longitude_deg": NaN,
        "latitude_deg": NaN,
        "alt_km": NaN,
        "orbit_class": "HEO",
        "timestamp": "2025-11-30T04:58:49.600018+00:00"
      },
      "geometry": {
        "type": "Point",
        "coordinates": [
          NaN,
          NaN
        ]
      }
    },
    {
      "type": "Feature",
      "properties": {
        "OBJECT_NAME": "INTELSAT 25 (IS-25)",
        "OBJECT_ID": "2008-034A",
        "EPOCH": "2025-11-29T18:51:33.336000",
        "MEAN_MOTION": 1.00273124,
        "ECCENTRICITY": 0.0005068,
        "INCLINATION": 2.1913,
        "RA_OF_ASC_NODE": 82.7983,
        "ARG_OF_PERICENTER": 173.5914,
        "MEAN_ANOMALY": 63.931,
        "EPHEMERIS_TYPE": 0,
        "CLASSIFICATION_TYPE": "U",
        "NORAD_CAT_ID": 33153,
        "ELEMENT_SET_NO": 999,
        "REV_AT_EPOCH": 6369,
        "BSTAR": 0,
        "MEAN_MOTION_DOT": -2.02e-06,
        "MEAN_MOTION_DDOT": 0,
        "norad_id": 33153,
        "name": "INTELSAT 25 (IS-25)",
        "group": "intelsat",
        "longitude_deg": NaN,
        "latitude_deg": NaN,
        "alt_km": NaN,
        "orbit_class": "HEO",
        "timestamp": "2025-11-30T04:58:49.600087+00:00"
      },
      "geometry": {
        "type": "Point",
        "coordinates": [
          NaN,
          NaN
        ]
      }
    },
    {
      "type": "Feature",
      "properties": {
        "OBJECT_NAME": "GALAXY 19 (G-19)",
        "OBJECT_ID": "2008-045A",
        "EPOCH": "2025-11-29T13:24:39.221856",
        "MEAN_MOTION": 1.00270888,
        "ECCENTRICITY": 0.0002996,
        "INCLINATION": 0.043,
        "RA_OF_ASC_NODE": 110.478,
        "ARG_OF_PERICENTER": 143.2287,
        "MEAN_ANOMALY": 279.1754,
        "EPHEMERIS_TYPE": 0,
        "CLASSIFICATION_TYPE": "U",
        "NORAD_CAT_ID": 33376,
        "ELEMENT_SET_NO": 999,
        "REV_AT_EPOCH": 6290,
        "BSTAR": 0,
        "MEAN_MOTION_DOT": -1.18e-06,
        "MEAN_MOTION_DDOT": 0,
        "norad_id": 33376,
        "name": "GALAXY 19 (G-19)",
        "group": "intelsat",
        "longitude_deg": NaN,
        "latitude_deg": NaN,
        "alt_km": NaN,
        "orbit_class": "HEO",
        "timestamp": "2025-11-30T04:58:49.600159+00:00"
      },
      "geometry": {
        "type": "Point",
        "coordinates": [
          NaN,
          NaN
        ]
      }
    },
    {
      "type": "Feature",
      "properties": {
        "OBJECT_NAME": "FM-5",
        "OBJECT_ID": "2009-034A",
        "EPOCH": "2025-11-29T18:35:42.356256",
        "MEAN_MOTION": 1.00270719,
        "ECCENTRICITY": 0.0001312,
        "INCLINATION": 0.0238,
        "RA_OF_ASC_NODE": 280.088,
        "ARG_OF_PERICENTER": 237.638,
        "MEAN_ANOMALY": 103.988,
        "EPHEMERIS_TYPE": 0,
        "CLASSIFICATION_TYPE": "U",
        "NORAD_CAT_ID": 35493,
        "ELEMENT_SET_NO": 999,
        "REV_AT_EPOCH": 4464,
        "BSTAR": 0,
        "MEAN_MOTION_DOT": -1.79e-06,
        "MEAN_MOTION_DDOT": 0,
        "norad_id": 35493,
        "name": "FM-5",
        "group": "intelsat",
        "longitude_deg": NaN,
        "latitude_deg": NaN,
        "alt_km": NaN,
        "orbit_class": "HEO",
        "timestamp": "2025-11-30T04:58:49.600295+00:00"
      },
      "geometry": {
        "type": "Point",
        "coordinates": [
          NaN,
          NaN
        ]
      }
    },
    {
      "type": "Feature",
      "properties": {
        "OBJECT_NAME": "INTELSAT 14 (IS-14)",
        "OBJECT_ID": "2009-064A",
        "EPOCH": "2025-11-29T18:47:41.206848",
        "MEAN_MOTION": 1.00271471,
        "ECCENTRICITY": 0.0002541,
        "INCLINATION": 0.0128,
        "RA_OF_ASC_NODE": 11.0216,
        "ARG_OF_PERICENTER": 235.9206,
        "MEAN_ANOMALY": 58.9133,
        "EPHEMERIS_TYPE": 0,
        "CLASSIFICATION_TYPE": "U",
        "NORAD_CAT_ID": 36097,
        "ELEMENT_SET_NO": 999,
        "REV_AT_EPOCH": 5860,
        "BSTAR": 0,
        "MEAN_MOTION_DOT": -2.52e-06,
        "MEAN_MOTION_DDOT": 0,
        "norad_id": 36097,
        "name": "INTELSAT 14 (IS-14)",
        "group": "intelsat",
        "longitude_deg": NaN,
        "latitude_deg": NaN,
        "alt_km": NaN,
        "orbit_class": "HEO",
        "timestamp": "2025-11-30T04:58:49.600482+00:00"
      },
      "geometry": {
        "type": "Point",
        "coordinates": [
          NaN,
          NaN
        ]
      }
    }
  ]
}