INTELSAT 11 (IS-11)     
1 32253U 07044B   25333.77670247 -.00000066  00000+0  00000+0 0  9997
2 32253   3.0433  81.1254 0009136 158.7120  31.4845  0.99048403 66479
HORIZONS-2              
1 32388U 07063B   25333.77739580 -.00000232  00000+0  00000+0 0  9998
2 32388   2.0848  83.1093 0004722 177.9457  13.9270  1.00273791 65819
DIRECTV 11              
1 32729U 08013A   25333.62976774 -.00000104  00000+0  00000+0 0  9993
2 32729   0.0359 154.5834 0000735  13.2744  28.4560  1.00266519 43594
GALAXY 18 (G-18)        
1 32951U 08024A   25333.69632817  .00000046  00000+0  00000+0 0  9990
2 32951   0.0203 306.1181 0003082 301.4948 308.8982  1.00272426 43851
INTELSAT 25 (IS-25)     
1 33153U 08034A   25333.78580250 -.00000202  00000+0  00000+0 0  9994
2 33153   2.1913  82.7983 0005068 173.5914  63.9310  1.00273124 63695
GALAXY 19 (G-19)        
1 33376U 08045A   25333.55878729 -.00000118  00000+0  00000+0 0  9995
2 33376   0.0430 110.4780 0002996 143.2287 279.1754  1.00270888 62901
FM-5                    
1 35493U 09034A   25333.77479579 -.00000179  00000+0  00000+0 0  9997
2 35493   0.0238 280.0880 0001312 237.6380 103.9880  1.00270719 44645
INTELSAT 14 (IS-14)     
1 36097U 09064A   25333.78311582 -.00000252  00000+0  00000+0 0  9993
2 36097   0.0128  11.0216 0002541 235.9206  58.9133  1.00271471 58609
